{"type":"Feature","properties":{"name":"Uganda"},"geometry":{"type":"Polygon","coordinates":[[[30.2909,-1.1526],[30.2567,-1.2172],[30.2122,-1.2595],[30.1656,-1.2775],[30.1472,-1.3451],[30.066,-1.3869],[30.0387,-1.425],[29.9174,-1.4752],[29.8807,-1.4536],[29.8642,-1.3703],[29.825,-1.3239],[29.7982,-1.3309],[29.7749,-1.3663],[29.7348,-1.3482],[29.6391,-1.389],[29.5779,-1.3884],[29.5871,-1.3106],[29.5715,-1.2792],[29.5814,-1.2348],[29.557,-1.1818],[29.5701,-1.0779],[29.5515,-0.9903],[29.556,-0.9195],[29.6108,-0.864],[29.603,-0.7229],[29.6306,-0.622],[29.6188,-0.5994],[29.6531,-0.5656],[29.6294,-0.4424],[29.7143,-0.0075],[29.7031,0.0725],[29.7613,0.1721],[29.7971,0.1648],[29.8326,0.337],[29.9405,0.4983],[29.9195,0.6181],[29.9283,0.785],[29.9473,0.8246],[30.0384,0.8789],[30.1451,0.9032],[30.221,1.0171],[30.2153,1.0771],[30.2389,1.136],[30.278,1.1716],[30.3238,1.1558],[30.3649,1.202],[30.4456,1.2128],[30.6817,1.5003],[31.0258,1.7782],[31.2428,2.0512],[31.2801,2.1514],[31.1901,2.2215],[31.1776,2.3029],[31.1126,2.2821],[31.0552,2.2902],[31.0355,2.3069],[31.0413,2.3312],[30.968,2.4054],[30.9309,2.4056],[30.9006,2.346],[30.8718,2.3321],[30.8198,2.376],[30.8049,2.4344],[30.7106,2.4451],[30.737,2.5195],[30.7353,2.5931],[30.8016,2.7691],[30.8287,2.7861],[30.8548,2.8932],[30.8209,2.9732],[30.7451,3.0363],[30.7634,3.1234],[30.8221,3.2814],[30.8424,3.2887],[30.9163,3.4148],[30.8964,3.52],[30.8395,3.4902],[30.9444,3.6793],[31.0687,3.7317],[31.1415,3.7851],[31.2148,3.7924],[31.295,3.7742],[31.5237,3.6561],[31.5648,3.6898],[31.6868,3.7128],[31.7779,3.8164],[31.8011,3.8065],[31.9019,3.7043],[31.93,3.5984],[32.0222,3.5864],[32.093,3.5245],[32.1558,3.5118],[32.1759,3.5272],[32.1878,3.6192],[32.3718,3.7311],[32.7564,3.769],[32.8404,3.7943],[32.9972,3.8855],[33.1645,3.7631],[33.4473,3.7444],[33.5277,3.7714],[33.9771,4.2197],[34.0285,4.188],[34.041,4.1204],[34.0693,4.088],[34.0611,4.0078],[34.1096,3.9434],[34.0848,3.8773],[34.108,3.8689],[34.1829,3.8861],[34.205,3.8745],[34.1967,3.8474],[34.149,3.8227],[34.179,3.7961],[34.1525,3.7756],[34.2409,3.7836],[34.2789,3.7097],[34.2904,3.7032],[34.3371,3.7346],[34.4397,3.6677],[34.4439,3.5663],[34.4155,3.497],[34.3813,3.4769],[34.3986,3.4336],[34.384,3.3883],[34.4241,3.3048],[34.4449,3.1591],[34.5129,3.1324],[34.5456,3.0975],[34.5847,2.9287],[34.6405,2.8601],[34.6603,2.8586],[34.685,2.881],[34.7301,2.8529],[34.7765,2.6856],[34.8187,2.598],[34.8418,2.5878],[34.8656,2.6049],[34.8756,2.5912],[34.8871,2.5224],[34.9236,2.4773],[34.9209,2.4546],[34.8679,2.4115],[34.8591,2.3868],[34.9675,2.1019],[34.962,1.9778],[35.0065,1.9169],[34.9797,1.8703],[34.9787,1.6759],[34.9337,1.5757],[34.8826,1.5522],[34.8384,1.4372],[34.779,1.3885],[34.8105,1.2725],[34.7979,1.2319],[34.6838,1.2091],[34.6289,1.1636],[34.5805,1.1525],[34.5601,1.0931],[34.5075,1.1025],[34.4772,1.0646],[34.4312,0.8935],[34.388,0.8158],[34.3067,0.7681],[34.2762,0.6808],[34.1496,0.6036],[34.1044,0.4622],[34.0757,0.4222],[34.0852,0.347],[33.9603,0.1987],[33.8905,0.0901],[33.9525,-0.1157],[33.8948,-0.6627],[33.9042,-1.0026],[30.8284,-1.0026],[30.7771,-0.9858],[30.6871,-1.025],[30.6386,-1.0734],[30.3375,-1.0662],[30.3174,-1.137],[30.2909,-1.1526]]]}}