{"type":"FeatureCollection","features":[{"type":"Feature","properties":{"name":"Lake Albert"},"geometry":{"type":"Polygon","coordinates":[[[31.361,2.262],[31.362,2.199],[31.389,2.161],[31.395,2.137],[31.378,2.121],[31.404,2.058],[31.405,2.025],[31.386,1.997],[31.404,1.953],[31.406,1.915],[31.395,1.863],[31.381,1.838],[31.36,1.824],[31.331,1.833],[31.322,1.812],[31.31,1.737],[31.296,1.712],[31.184,1.614],[31.111,1.579],[31.076,1.586],[31.063,1.579],[31.05,1.586],[31.037,1.556],[30.947,1.518],[30.898,1.433],[30.731,1.24],[30.721,1.224],[30.714,1.175],[30.604,1.058],[30.607,1.048],[30.59,1.045],[30.604,1.038],[30.604,1.032],[30.578,1.028],[30.556,1.045],[30.534,1.014],[30.536,1.058],[30.506,1.035],[30.498,1.035],[30.492,1.045],[30.508,1.072],[30.51,1.095],[30.488,1.141],[30.494,1.16],[30.486,1.199],[30.508,1.209],[30.508,1.216],[30.467,1.251],[30.455,1.271],[30.452,1.23],[30.446,1.236],[30.433,1.223],[30.421,1.254],[30.408,1.261],[30.392,1.257],[30.399,1.298],[30.386,1.31],[30.393,1.324],[30.422,1.339],[30.477,1.442],[30.499,1.509],[30.526,1.529],[30.549,1.565],[30.621,1.603],[30.638,1.646],[30.654,1.663],[30.734,1.716],[30.745,1.746],[30.816,1.799],[30.913,1.907],[30.954,1.929],[31.005,1.941],[31.067,2.003],[31.111,2.032],[31.152,2.045],[31.202,2.107],[31.237,2.117],[31.241,2.148],[31.294,2.191],[31.325,2.262],[31.368,2.31],[31.451,2.348],[31.461,2.36],[31.475,2.408],[31.474,2.359],[31.468,2.336],[31.412,2.309],[31.373,2.279],[31.361,2.262]]]}},{"type":"Feature","properties":{"name":"Lake Victoria"},"geometry":{"type":"Polygon","coordinates":[[[33.905,-1.529],[33.879,-1.518],[33.842,-1.518],[33.825,-1.512],[33.81,-1.482],[33.798,-1.471],[33.793,-1.482],[33.756,-1.477],[33.726,-1.491],[33.681,-1.466],[33.667,-1.464],[33.654,-1.471],[33.647,-1.482],[33.653,-1.492],[33.668,-1.511],[33.682,-1.509],[33.681,-1.535],[33.671,-1.549],[33.627,-1.556],[33.612,-1.566],[33.627,-1.573],[33.647,-1.566],[33.654,-1.584],[33.675,-1.58],[33.687,-1.598],[33.688,-1.615],[33.668,-1.628],[33.684,-1.634],[33.702,-1.628],[33.709,-1.637],[33.709,-1.66],[33.688,-1.675],[33.543,-1.675],[33.551,-1.69],[33.578,-1.71],[33.599,-1.738],[33.606,-1.73],[33.647,-1.762],[33.641,-1.775],[33.618,-1.775],[33.612,-1.769],[33.578,-1.758],[33.567,-1.765],[33.569,-1.78],[33.557,-1.803],[33.527,-1.813],[33.505,-1.836],[33.493,-1.84],[33.451,-1.837],[33.441,-1.826],[33.448,-1.8],[33.388,-1.799],[33.365,-1.804],[33.331,-1.837],[33.311,-1.884],[33.311,-1.906],[33.283,-1.922],[33.314,-1.944],[33.393,-1.897],[33.428,-1.895],[33.438,-1.88],[33.462,-1.881],[33.455,-1.894],[33.49,-1.927],[33.462,-1.95],[33.544,-1.963],[33.537,-1.97],[33.547,-1.975],[33.558,-1.97],[33.573,-1.987],[33.551,-2.029],[33.496,-2.025],[33.431,-1.981],[33.4,-1.972],[33.372,-1.998],[33.4,-2.039],[33.386,-2.043],[33.38,-2.053],[33.34,-2.019],[33.324,-2.017],[33.325,-2.046],[33.318,-2.046],[33.297,-2.011],[33.282,-2.0],[33.27,-2.012],[33.285,-2.019],[33.292,-2.032],[33.286,-2.056],[33.256,-2.046],[33.219,-2.043],[33.215,-2.053],[33.221,-2.08],[33.208,-2.115],[33.221,-2.142],[33.239,-2.122],[33.259,-2.111],[33.282,-2.111],[33.337,-2.136],[33.358,-2.168],[33.4,-2.156],[33.449,-2.151],[33.509,-2.153],[33.566,-2.163],[33.606,-2.183],[33.642,-2.147],[33.667,-2.138],[33.749,-2.086],[33.786,-2.095],[33.816,-2.123],[33.831,-2.163],[33.825,-2.197],[33.838,-2.221],[33.76,-2.27],[33.715,-2.279],[33.668,-2.313],[33.649,-2.308],[33.597,-2.357],[33.532,-2.379],[33.51,-2.405],[33.511,-2.414],[33.527,-2.426],[33.53,-2.44],[33.515,-2.449],[33.493,-2.448],[33.476,-2.436],[33.408,-2.467],[33.462,-2.502],[33.451,-2.527],[33.44,-2.531],[33.428,-2.525],[33.422,-2.532],[33.428,-2.553],[33.4,-2.552],[33.393,-2.529],[33.357,-2.531],[33.345,-2.525],[33.353,-2.504],[33.345,-2.496],[33.334,-2.502],[33.33,-2.517],[33.311,-2.505],[33.234,-2.518],[33.208,-2.513],[33.173,-2.488],[33.17,-2.469],[33.147,-2.463],[33.138,-2.453],[33.119,-2.416],[33.119,-2.4],[33.08,-2.389],[32.999,-2.38],[32.963,-2.388],[32.927,-2.409],[32.903,-2.438],[32.907,-2.47],[32.882,-2.467],[32.875,-2.477],[32.878,-2.508],[32.902,-2.533],[32.907,-2.55],[32.866,-2.601],[32.87,-2.634],[32.909,-2.679],[32.899,-2.69],[32.881,-2.691],[32.879,-2.705],[32.907,-2.731],[32.92,-2.759],[32.948,-2.773],[32.955,-2.786],[32.936,-2.802],[32.927,-2.82],[32.969,-2.82],[32.969,-2.841],[32.992,-2.85],[33.01,-2.846],[33.028,-2.861],[33.023,-2.883],[32.992,-2.878],[32.934,-2.852],[32.918,-2.841],[32.908,-2.825],[32.907,-2.8],[32.899,-2.8],[32.891,-2.822],[32.841,-2.851],[32.825,-2.888],[32.825,-2.923],[32.809,-2.961],[32.763,-3.012],[32.756,-3.012],[32.746,-2.985],[32.759,-2.954],[32.762,-2.928],[32.77,-2.918],[32.797,-2.917],[32.797,-2.91],[32.746,-2.877],[32.728,-2.883],[32.72,-2.87],[32.782,-2.837],[32.847,-2.824],[32.845,-2.793],[32.873,-2.729],[32.862,-2.717],[32.834,-2.714],[32.823,-2.705],[32.827,-2.692],[32.845,-2.677],[32.826,-2.666],[32.811,-2.669],[32.797,-2.635],[32.817,-2.642],[32.821,-2.623],[32.816,-2.59],[32.838,-2.587],[32.829,-2.567],[32.811,-2.566],[32.812,-2.55],[32.831,-2.53],[32.838,-2.512],[32.805,-2.485],[32.762,-2.5],[32.735,-2.533],[32.735,-2.491],[32.728,-2.485],[32.673,-2.518],[32.695,-2.473],[32.67,-2.434],[32.66,-2.38],[32.635,-2.422],[32.625,-2.467],[32.549,-2.538],[32.525,-2.553],[32.502,-2.546],[32.516,-2.518],[32.549,-2.482],[32.551,-2.436],[32.544,-2.436],[32.509,-2.47],[32.492,-2.456],[32.475,-2.463],[32.434,-2.457],[32.441,-2.436],[32.371,-2.432],[32.358,-2.416],[32.361,-2.404],[32.32,-2.354],[32.324,-2.334],[32.339,-2.335],[32.344,-2.341],[32.361,-2.329],[32.329,-2.316],[32.31,-2.272],[32.259,-2.284],[32.242,-2.279],[32.228,-2.252],[32.219,-2.251],[32.214,-2.262],[32.224,-2.273],[32.222,-2.321],[32.203,-2.322],[32.177,-2.37],[32.159,-2.388],[32.133,-2.389],[32.119,-2.371],[32.078,-2.367],[32.066,-2.386],[32.068,-2.425],[32.098,-2.436],[32.108,-2.46],[32.167,-2.496],[32.174,-2.512],[32.162,-2.521],[32.157,-2.551],[32.138,-2.56],[32.132,-2.533],[32.119,-2.536],[32.108,-2.531],[32.102,-2.521],[32.104,-2.512],[32.087,-2.503],[32.07,-2.505],[32.075,-2.516],[32.07,-2.525],[32.03,-2.47],[32.023,-2.505],[32.016,-2.505],[32.007,-2.487],[31.994,-2.491],[31.986,-2.508],[31.992,-2.529],[31.992,-2.584],[31.983,-2.591],[31.948,-2.588],[31.934,-2.594],[31.936,-2.608],[31.965,-2.627],[31.977,-2.659],[31.995,-2.677],[31.995,-2.711],[32.023,-2.742],[32.015,-2.76],[31.999,-2.768],[31.981,-2.766],[31.968,-2.752],[31.96,-2.696],[31.937,-2.69],[31.939,-2.662],[31.932,-2.649],[31.906,-2.656],[31.905,-2.635],[31.9,-2.635],[31.893,-2.641],[31.906,-2.711],[31.872,-2.717],[31.874,-2.702],[31.858,-2.678],[31.832,-2.691],[31.824,-2.707],[31.845,-2.786],[31.825,-2.814],[31.796,-2.834],[31.783,-2.815],[31.789,-2.726],[31.786,-2.719],[31.76,-2.716],[31.776,-2.669],[31.774,-2.654],[31.785,-2.643],[31.816,-2.64],[31.817,-2.62],[31.824,-2.615],[31.856,-2.617],[31.858,-2.601],[31.755,-2.62],[31.748,-2.611],[31.748,-2.557],[31.743,-2.547],[31.72,-2.539],[31.714,-2.522],[31.718,-2.508],[31.755,-2.505],[31.771,-2.498],[31.796,-2.463],[31.789,-2.441],[31.796,-2.425],[31.776,-2.416],[31.759,-2.393],[31.755,-2.361],[31.771,-2.364],[31.772,-2.357],[31.748,-2.341],[31.755,-2.327],[31.725,-2.32],[31.659,-2.361],[31.634,-2.356],[31.632,-2.324],[31.653,-2.288],[31.652,-2.259],[31.672,-2.199],[31.669,-2.19],[31.694,-2.142],[31.681,-2.115],[31.701,-2.077],[31.686,-2.06],[31.707,-2.005],[31.689,-2.006],[31.666,-2.025],[31.635,-2.025],[31.621,-2.041],[31.611,-2.039],[31.613,-2.004],[31.631,-1.948],[31.674,-1.895],[31.684,-1.867],[31.694,-1.8],[31.712,-1.755],[31.721,-1.676],[31.754,-1.62],[31.761,-1.597],[31.742,-1.566],[31.753,-1.538],[31.749,-1.494],[31.755,-1.466],[31.796,-1.484],[31.801,-1.471],[31.805,-1.412],[31.821,-1.347],[31.851,-1.278],[31.859,-1.182],[31.87,-1.15],[31.851,-1.113],[31.851,-1.075],[31.845,-1.059],[31.874,-1.025],[31.862,-1.019],[31.84,-1.024],[31.837,-0.995],[31.824,-0.984],[31.814,-1.04],[31.781,-1.055],[31.769,-1.048],[31.767,-1.03],[31.788,-0.989],[31.77,-0.965],[31.769,-0.864],[31.761,-0.846],[31.701,-0.839],[31.699,-0.799],[31.718,-0.757],[31.755,-0.716],[31.779,-0.669],[31.798,-0.652],[31.785,-0.616],[31.793,-0.576],[31.828,-0.523],[31.847,-0.471],[31.913,-0.436],[31.926,-0.422],[31.961,-0.378],[31.978,-0.338],[31.998,-0.315],[32.019,-0.306],[32.03,-0.326],[32.037,-0.326],[32.03,-0.295],[32.006,-0.247],[31.984,-0.244],[31.975,-0.23],[31.98,-0.189],[31.961,-0.184],[31.927,-0.196],[31.94,-0.14],[31.92,-0.134],[31.995,-0.086],[32.07,-0.099],[32.062,-0.076],[32.026,-0.067],[32.016,-0.045],[32.037,-0.052],[32.077,-0.036],[32.132,-0.063],[32.17,-0.073],[32.188,-0.068],[32.206,-0.042],[32.208,-0.024],[32.194,0.014],[32.208,0.037],[32.2,0.017],[32.215,-0.003],[32.241,-0.021],[32.269,-0.029],[32.29,-0.018],[32.292,0.002],[32.248,0.044],[32.256,0.051],[32.324,0.027],[32.352,0.01],[32.352,-0.024],[32.379,-0.024],[32.369,-0.004],[32.375,0.054],[32.365,0.085],[32.386,0.092],[32.401,0.078],[32.421,0.083],[32.439,0.099],[32.448,0.119],[32.459,0.109],[32.458,0.095],[32.441,0.071],[32.42,0.055],[32.438,0.034],[32.452,0.03],[32.488,0.083],[32.496,0.085],[32.509,0.051],[32.53,0.078],[32.547,0.066],[32.557,0.044],[32.57,0.06],[32.544,0.102],[32.551,0.119],[32.578,0.105],[32.588,0.108],[32.572,0.133],[32.598,0.14],[32.598,0.147],[32.572,0.161],[32.575,0.175],[32.563,0.19],[32.568,0.199],[32.595,0.196],[32.598,0.209],[32.616,0.211],[32.645,0.291],[32.663,0.289],[32.667,0.277],[32.663,0.263],[32.648,0.248],[32.648,0.231],[32.657,0.222],[32.673,0.236],[32.681,0.222],[32.657,0.183],[32.661,0.172],[32.69,0.167],[32.699,0.174],[32.715,0.209],[32.725,0.206],[32.742,0.174],[32.704,0.14],[32.653,0.133],[32.667,0.092],[32.682,0.089],[32.756,0.126],[32.797,0.106],[32.799,0.139],[32.811,0.161],[32.817,0.161],[32.822,0.15],[32.859,0.147],[32.851,0.181],[32.859,0.181],[32.864,0.169],[32.878,0.191],[32.893,0.196],[32.886,0.181],[32.899,0.181],[32.886,0.161],[32.887,0.153],[32.899,0.147],[32.878,0.136],[32.871,0.127],[32.876,0.116],[32.893,0.107],[32.893,0.089],[32.901,0.077],[32.921,0.078],[32.986,0.101],[33.078,0.166],[33.092,0.186],[33.105,0.222],[33.043,0.229],[33.079,0.25],[33.071,0.263],[33.124,0.247],[33.113,0.226],[33.117,0.214],[33.126,0.217],[33.139,0.229],[33.139,0.247],[33.167,0.263],[33.151,0.297],[33.154,0.316],[33.239,0.352],[33.27,0.373],[33.267,0.39],[33.193,0.406],[33.187,0.428],[33.211,0.423],[33.236,0.427],[33.25,0.44],[33.242,0.462],[33.283,0.483],[33.291,0.44],[33.319,0.438],[33.346,0.456],[33.366,0.497],[33.389,0.485],[33.35,0.422],[33.366,0.407],[33.349,0.392],[33.31,0.382],[33.318,0.352],[33.366,0.373],[33.369,0.355],[33.359,0.339],[33.395,0.341],[33.428,0.325],[33.424,0.339],[33.414,0.346],[33.442,0.356],[33.469,0.352],[33.455,0.346],[33.466,0.331],[33.495,0.319],[33.489,0.305],[33.508,0.3],[33.508,0.283],[33.495,0.27],[33.476,0.277],[33.489,0.284],[33.459,0.294],[33.434,0.291],[33.4,0.298],[33.413,0.284],[33.434,0.277],[33.421,0.27],[33.448,0.257],[33.426,0.244],[33.482,0.188],[33.489,0.188],[33.486,0.216],[33.493,0.236],[33.501,0.232],[33.504,0.221],[33.503,0.196],[33.531,0.222],[33.516,0.181],[33.531,0.186],[33.537,0.202],[33.544,0.202],[33.546,0.186],[33.556,0.18],[33.566,0.184],[33.58,0.208],[33.617,0.227],[33.626,0.246],[33.62,0.311],[33.642,0.323],[33.668,0.311],[33.686,0.326],[33.709,0.332],[33.749,0.319],[33.756,0.311],[33.715,0.298],[33.702,0.284],[33.695,0.263],[33.718,0.269],[33.743,0.263],[33.71,0.215],[33.709,0.202],[33.722,0.193],[33.777,0.188],[33.788,0.198],[33.79,0.236],[33.805,0.22],[33.818,0.154],[33.831,0.209],[33.894,0.174],[33.895,0.192],[33.916,0.204],[33.921,0.219],[33.982,0.266],[34.004,0.226],[33.992,0.181],[33.988,0.119],[33.982,0.106],[33.958,0.106],[33.955,0.095],[33.962,0.058],[33.986,0.038],[33.996,-0.041],[34.03,-0.052],[34.021,-0.071],[34.044,-0.073],[34.065,-0.107],[34.072,-0.073],[34.065,-0.073],[34.077,-0.063],[34.123,-0.058],[34.135,-0.065],[34.113,-0.107],[34.129,-0.106],[34.138,-0.111],[34.138,-0.117],[34.085,-0.14],[34.094,-0.169],[34.122,-0.185],[34.188,-0.189],[34.185,-0.209],[34.196,-0.221],[34.249,-0.252],[34.253,-0.265],[34.236,-0.299],[34.251,-0.299],[34.257,-0.305],[34.243,-0.326],[34.277,-0.346],[34.271,-0.381],[34.288,-0.396],[34.303,-0.391],[34.325,-0.341],[34.376,-0.302],[34.387,-0.285],[34.383,-0.244],[34.373,-0.223],[34.357,-0.229],[34.346,-0.22],[34.342,-0.204],[34.345,-0.189],[34.36,-0.179],[34.407,-0.183],[34.447,-0.168],[34.506,-0.181],[34.548,-0.149],[34.6,-0.137],[34.647,-0.117],[34.674,-0.09],[34.723,-0.091],[34.737,-0.086],[34.731,-0.138],[34.743,-0.162],[34.75,-0.154],[34.768,-0.179],[34.795,-0.196],[34.833,-0.271],[34.855,-0.287],[34.838,-0.309],[34.829,-0.312],[34.809,-0.306],[34.783,-0.287],[34.771,-0.291],[34.75,-0.287],[34.754,-0.336],[34.74,-0.34],[34.658,-0.345],[34.613,-0.332],[34.587,-0.336],[34.562,-0.318],[34.544,-0.326],[34.498,-0.329],[34.449,-0.346],[34.449,-0.397],[34.457,-0.424],[34.5,-0.441],[34.506,-0.468],[34.503,-0.477],[34.424,-0.525],[34.407,-0.522],[34.42,-0.497],[34.419,-0.489],[34.404,-0.46],[34.386,-0.445],[34.359,-0.442],[34.366,-0.459],[34.361,-0.473],[34.348,-0.479],[34.331,-0.477],[34.311,-0.449],[34.305,-0.452],[34.304,-0.461],[34.311,-0.477],[34.285,-0.466],[34.244,-0.429],[34.216,-0.428],[34.223,-0.415],[34.189,-0.422],[34.174,-0.451],[34.161,-0.518],[34.15,-0.532],[34.103,-0.532],[34.085,-0.552],[34.057,-0.559],[34.083,-0.586],[34.085,-0.6],[34.073,-0.617],[34.055,-0.627],[34.048,-0.641],[34.037,-0.73],[34.057,-0.728],[34.068,-0.749],[34.072,-0.795],[34.12,-0.826],[34.175,-0.847],[34.183,-0.871],[34.14,-0.912],[34.125,-0.978],[34.133,-1.004],[34.072,-0.97],[34.066,-0.996],[34.058,-1.002],[34.037,-0.997],[34.048,-1.012],[34.063,-1.016],[34.092,-1.004],[34.098,-1.019],[34.073,-1.025],[34.065,-1.035],[34.075,-1.048],[34.072,-1.059],[34.034,-1.082],[34.023,-1.101],[33.976,-1.105],[33.993,-1.138],[33.963,-1.173],[33.901,-1.209],[33.886,-1.223],[33.873,-1.256],[33.886,-1.278],[33.909,-1.286],[33.934,-1.278],[33.928,-1.299],[33.967,-1.316],[33.983,-1.333],[33.989,-1.35],[33.986,-1.37],[33.979,-1.376],[33.969,-1.374],[33.976,-1.354],[33.962,-1.34],[33.905,-1.321],[33.821,-1.326],[33.804,-1.32],[33.793,-1.334],[33.825,-1.374],[33.818,-1.388],[33.832,-1.383],[33.844,-1.388],[33.859,-1.408],[33.798,-1.388],[33.781,-1.398],[33.781,-1.41],[33.791,-1.421],[33.804,-1.429],[33.83,-1.428],[33.847,-1.433],[33.867,-1.471],[33.879,-1.471],[33.891,-1.48],[33.894,-1.498],[33.928,-1.484],[33.945,-1.511],[33.956,-1.519],[33.945,-1.526],[33.928,-1.518],[33.918,-1.53],[33.905,-1.529]],[[34.12,-0.415],[34.12,-0.428],[34.161,-0.436],[34.204,-0.407],[34.217,-0.389],[34.223,-0.36],[34.202,-0.395],[34.191,-0.395],[34.167,-0.367],[34.154,-0.401],[34.12,-0.415]],[[33.946,-0.473],[34.017,-0.505],[34.049,-0.49],[34.062,-0.474],[34.054,-0.467],[34.045,-0.437],[34.03,-0.432],[33.964,-0.445],[33.951,-0.455],[33.946,-0.473]],[[31.811,-1.819],[31.841,-1.795],[31.849,-1.78],[31.851,-1.758],[31.842,-1.752],[31.838,-1.752],[31.837,-1.775],[31.816,-1.801],[31.811,-1.819]],[[31.786,-2.148],[31.798,-2.151],[31.825,-2.13],[31.793,-2.124],[31.785,-2.115],[31.783,-2.088],[31.776,-2.08],[31.764,-2.121],[31.769,-2.135],[31.786,-2.148]],[[31.921,-2.398],[31.9,-2.355],[31.908,-2.322],[31.869,-2.31],[31.845,-2.224],[31.84,-2.216],[31.818,-2.203],[31.817,-2.183],[31.811,-2.183],[31.791,-2.234],[31.788,-2.26],[31.811,-2.252],[31.808,-2.268],[31.79,-2.289],[31.776,-2.286],[31.783,-2.321],[31.803,-2.316],[31.83,-2.323],[31.817,-2.334],[31.851,-2.375],[31.838,-2.426],[31.848,-2.455],[31.86,-2.46],[31.875,-2.454],[31.92,-2.416],[31.921,-2.398]],[[31.94,-1.662],[31.92,-1.628],[31.892,-1.611],[31.858,-1.621],[31.872,-1.653],[31.872,-1.69],[31.867,-1.691],[31.865,-1.683],[31.858,-1.745],[31.889,-1.691],[31.9,-1.635],[31.94,-1.662]],[[32.071,-2.278],[32.068,-2.267],[32.06,-2.265],[32.05,-2.279],[32.044,-2.279],[32.057,-2.245],[32.05,-2.252],[32.044,-2.231],[32.026,-2.234],[31.96,-2.271],[31.951,-2.277],[31.951,-2.292],[31.981,-2.293],[31.985,-2.309],[31.955,-2.347],[31.97,-2.344],[31.978,-2.367],[32.038,-2.351],[32.05,-2.341],[32.071,-2.278]],[[32.324,-0.354],[32.319,-0.338],[32.29,-0.299],[32.277,-0.309],[32.283,-0.326],[32.273,-0.33],[32.256,-0.327],[32.248,-0.318],[32.256,-0.305],[32.187,-0.328],[32.166,-0.326],[32.153,-0.312],[32.156,-0.292],[32.174,-0.257],[32.172,-0.24],[32.157,-0.234],[32.112,-0.237],[32.074,-0.23],[32.064,-0.235],[32.065,-0.255],[32.05,-0.257],[32.05,-0.264],[32.092,-0.28],[32.112,-0.305],[32.104,-0.322],[32.144,-0.338],[32.172,-0.341],[32.194,-0.332],[32.228,-0.36],[32.222,-0.374],[32.248,-0.397],[32.248,-0.408],[32.242,-0.413],[32.225,-0.409],[32.217,-0.399],[32.197,-0.428],[32.171,-0.436],[32.168,-0.471],[32.132,-0.525],[32.138,-0.538],[32.166,-0.538],[32.174,-0.505],[32.194,-0.511],[32.187,-0.47],[32.242,-0.464],[32.239,-0.484],[32.259,-0.49],[32.272,-0.472],[32.283,-0.47],[32.271,-0.387],[32.283,-0.353],[32.324,-0.354]],[[32.347,-0.266],[32.352,-0.271],[32.37,-0.27],[32.34,-0.216],[32.313,-0.198],[32.297,-0.203],[32.324,-0.22],[32.331,-0.23],[32.322,-0.235],[32.323,-0.25],[32.331,-0.257],[32.338,-0.25],[32.347,-0.266]],[[32.401,-0.366],[32.413,-0.367],[32.413,-0.36],[32.4,-0.357],[32.379,-0.332],[32.369,-0.334],[32.369,-0.344],[32.379,-0.367],[32.352,-0.36],[32.361,-0.375],[32.401,-0.366]],[[32.537,-2.307],[32.533,-2.284],[32.496,-2.286],[32.502,-2.321],[32.475,-2.324],[32.465,-2.314],[32.468,-2.272],[32.446,-2.284],[32.434,-2.266],[32.408,-2.342],[32.41,-2.355],[32.426,-2.362],[32.441,-2.416],[32.463,-2.418],[32.482,-2.402],[32.492,-2.404],[32.507,-2.397],[32.519,-2.383],[32.523,-2.367],[32.516,-2.375],[32.512,-2.359],[32.537,-2.307]],[[32.544,-0.374],[32.516,-0.387],[32.504,-0.384],[32.502,-0.408],[32.49,-0.418],[32.454,-0.428],[32.477,-0.442],[32.473,-0.461],[32.441,-0.49],[32.448,-0.502],[32.462,-0.505],[32.481,-0.492],[32.486,-0.482],[32.482,-0.47],[32.501,-0.459],[32.521,-0.421],[32.523,-0.395],[32.53,-0.395],[32.537,-0.408],[32.544,-0.374]],[[32.75,-0.027],[32.763,-0.052],[32.803,-0.009],[32.811,0.019],[32.789,0.037],[32.789,0.017],[32.773,0.021],[32.767,0.012],[32.77,-0.018],[32.754,-0.018],[32.75,-0.027]],[[32.817,-0.086],[32.793,-0.08],[32.785,-0.087],[32.783,-0.099],[32.763,-0.093],[32.766,-0.077],[32.759,-0.06],[32.735,-0.038],[32.756,-0.086],[32.739,-0.078],[32.735,-0.058],[32.724,-0.072],[32.708,-0.065],[32.714,-0.098],[32.708,-0.107],[32.684,-0.094],[32.673,-0.107],[32.66,-0.099],[32.665,-0.111],[32.686,-0.121],[32.719,-0.126],[32.741,-0.115],[32.756,-0.121],[32.742,-0.127],[32.742,-0.134],[32.786,-0.121],[32.817,-0.086]],[[33.009,-1.819],[32.995,-1.819],[33.004,-1.849],[32.997,-1.859],[33.023,-1.888],[33.037,-1.895],[33.088,-1.854],[33.092,-1.837],[33.079,-1.813],[33.093,-1.817],[33.097,-1.808],[33.083,-1.796],[33.016,-1.801],[33.006,-1.805],[33.009,-1.819]],[[33.187,-2.125],[33.186,-2.117],[33.174,-2.115],[33.135,-2.074],[33.147,-2.067],[33.147,-2.06],[33.109,-2.051],[33.101,-2.043],[33.12,-2.011],[33.105,-1.967],[33.047,-1.977],[33.027,-1.973],[33.023,-1.981],[32.992,-1.991],[32.941,-1.963],[32.932,-1.948],[32.948,-1.909],[32.92,-1.895],[32.851,-1.943],[32.841,-1.931],[32.825,-1.929],[32.851,-1.97],[32.899,-1.977],[32.887,-2.003],[32.845,-2.051],[32.853,-2.072],[32.871,-2.066],[32.929,-2.092],[32.996,-2.099],[33.056,-2.141],[33.075,-2.133],[33.079,-2.122],[33.142,-2.167],[33.174,-2.169],[33.164,-2.154],[33.168,-2.148],[33.181,-2.149],[33.187,-2.125]],[[33.195,0.161],[33.177,0.161],[33.166,0.147],[33.164,0.126],[33.174,0.106],[33.181,0.117],[33.184,0.15],[33.195,0.161]],[[33.304,0.044],[33.283,0.044],[33.29,0.064],[33.25,0.05],[33.248,0.035],[33.256,0.01],[33.284,0.022],[33.304,0.044]],[[33.4,0.257],[33.371,0.298],[33.352,0.298],[33.352,0.291],[33.366,0.285],[33.372,0.27],[33.357,0.274],[33.35,0.267],[33.352,0.243],[33.338,0.25],[33.329,0.239],[33.32,0.24],[33.315,0.248],[33.318,0.263],[33.296,0.263],[33.294,0.274],[33.318,0.298],[33.298,0.305],[33.239,0.298],[33.205,0.256],[33.255,0.208],[33.262,0.191],[33.246,0.181],[33.208,0.188],[33.228,0.154],[33.247,0.165],[33.264,0.153],[33.279,0.13],[33.283,0.106],[33.301,0.118],[33.304,0.14],[33.311,0.14],[33.31,0.1],[33.316,0.085],[33.339,0.08],[33.345,0.085],[33.325,0.097],[33.319,0.119],[33.325,0.142],[33.338,0.154],[33.318,0.171],[33.317,0.184],[33.325,0.196],[33.318,0.211],[33.325,0.219],[33.336,0.217],[33.345,0.202],[33.359,0.217],[33.372,0.216],[33.387,0.251],[33.4,0.257]],[[33.729,-0.109],[33.719,-0.099],[33.705,-0.104],[33.654,-0.134],[33.654,-0.14],[33.682,-0.14],[33.695,-0.162],[33.702,-0.154],[33.715,-0.168],[33.729,-0.109]],[[33.781,0.073],[33.831,0.064],[33.864,0.074],[33.879,0.064],[33.883,0.079],[33.867,0.09],[33.844,0.096],[33.825,0.092],[33.812,0.115],[33.786,0.116],[33.765,0.101],[33.77,0.078],[33.781,0.073]]]}},{"type":"Feature","properties":{"name":"Lake Kivu"},"geometry":{"type":"Polygon","coordinates":[[[29.326,-2.057],[29.316,-2.06],[29.322,-2.08],[29.316,-2.101],[29.304,-2.079],[29.288,-2.073],[29.277,-2.098],[29.275,-2.128],[29.268,-2.128],[29.263,-2.118],[29.268,-2.08],[29.254,-2.087],[29.248,-2.1],[29.248,-2.132],[29.272,-2.153],[29.275,-2.169],[29.252,-2.148],[29.224,-2.15],[29.206,-2.168],[29.214,-2.197],[29.194,-2.195],[29.183,-2.206],[29.186,-2.245],[29.2,-2.238],[29.196,-2.252],[29.185,-2.256],[29.158,-2.245],[29.117,-2.327],[29.124,-2.286],[29.117,-2.286],[29.096,-2.321],[29.093,-2.313],[29.083,-2.313],[29.082,-2.332],[29.058,-2.385],[29.042,-2.395],[29.062,-2.355],[29.053,-2.34],[29.047,-2.292],[29.028,-2.286],[29.014,-2.3],[28.996,-2.354],[28.968,-2.375],[28.924,-2.392],[28.905,-2.409],[28.887,-2.462],[28.874,-2.478],[28.843,-2.47],[28.835,-2.429],[28.842,-2.373],[28.855,-2.36],[28.96,-2.31],[28.972,-2.264],[28.973,-2.245],[28.911,-2.311],[28.884,-2.327],[28.919,-2.279],[28.926,-2.253],[28.912,-2.224],[28.897,-2.234],[28.891,-2.252],[28.877,-2.245],[28.863,-2.259],[28.871,-2.224],[28.86,-2.218],[28.858,-2.207],[28.877,-2.183],[28.863,-2.169],[28.889,-2.165],[28.898,-2.15],[28.888,-2.138],[28.857,-2.142],[28.883,-2.115],[28.931,-2.086],[28.967,-2.053],[28.949,-1.987],[28.942,-1.984],[28.92,-1.983],[28.905,-2.015],[28.917,-2.024],[28.891,-2.053],[28.891,-2.029],[28.884,-2.012],[28.912,-1.963],[28.928,-1.968],[28.946,-1.944],[28.994,-1.833],[29.024,-1.803],[29.028,-1.786],[29.014,-1.793],[29.014,-1.752],[29.032,-1.754],[29.048,-1.74],[29.093,-1.671],[29.097,-1.65],[29.083,-1.614],[29.021,-1.69],[29.014,-1.69],[29.028,-1.629],[29.043,-1.599],[29.059,-1.587],[29.077,-1.589],[29.107,-1.618],[29.15,-1.632],[29.206,-1.676],[29.255,-1.697],[29.248,-1.721],[29.268,-1.73],[29.272,-1.741],[29.271,-1.768],[29.261,-1.779],[29.277,-1.799],[29.28,-1.848],[29.288,-1.868],[29.276,-1.887],[29.285,-1.908],[29.309,-1.933],[29.312,-1.926],[29.331,-1.971],[29.338,-1.977],[29.35,-1.97],[29.346,-1.989],[29.364,-2.036],[29.361,-2.051],[29.356,-2.051],[29.35,-2.039],[29.326,-2.057]],[[29.117,-1.943],[29.115,-1.928],[29.107,-1.919],[29.097,-1.919],[29.09,-1.929],[29.076,-1.916],[29.051,-1.952],[29.044,-1.972],[29.042,-1.998],[29.057,-1.991],[29.062,-2.0],[29.056,-2.032],[29.028,-2.088],[29.014,-2.149],[28.986,-2.186],[28.98,-2.203],[29.008,-2.197],[29.004,-2.212],[29.014,-2.224],[29.028,-2.217],[29.015,-2.235],[29.014,-2.259],[29.036,-2.262],[29.069,-2.246],[29.094,-2.22],[29.09,-2.174],[29.11,-2.134],[29.107,-2.118],[29.076,-2.067],[29.089,-2.064],[29.093,-2.045],[29.114,-2.036],[29.096,-1.957],[29.117,-1.943]]]}},{"type":"Feature","properties":{"name":"Lake Edward"},"geometry":{"type":"Polygon","coordinates":[[[29.452,-0.607],[29.438,-0.61],[29.439,-0.62],[29.398,-0.682],[29.392,-0.669],[29.377,-0.69],[29.37,-0.69],[29.377,-0.648],[29.376,-0.61],[29.37,-0.6],[29.356,-0.593],[29.309,-0.593],[29.311,-0.567],[29.334,-0.539],[29.344,-0.514],[29.309,-0.497],[29.32,-0.482],[29.357,-0.464],[29.392,-0.422],[29.384,-0.398],[29.392,-0.376],[29.438,-0.319],[29.447,-0.257],[29.464,-0.216],[29.493,-0.181],[29.532,-0.155],[29.675,-0.114],[29.707,-0.073],[29.732,-0.069],[29.754,-0.078],[29.769,-0.094],[29.781,-0.126],[29.81,-0.131],[29.811,-0.152],[29.823,-0.162],[29.836,-0.164],[29.864,-0.148],[29.902,-0.14],[29.867,-0.294],[29.83,-0.36],[29.747,-0.42],[29.686,-0.436],[29.672,-0.447],[29.649,-0.477],[29.626,-0.491],[29.611,-0.546],[29.588,-0.58],[29.555,-0.603],[29.48,-0.641],[29.47,-0.616],[29.452,-0.607]]]}},{"type":"Feature","properties":{"name":null},"geometry":{"type":"Polygon","coordinates":[[[33.161,1.634],[33.156,1.63],[33.155,1.631],[33.156,1.632],[33.161,1.634]]]}},{"type":"Feature","properties":{"name":"Lake Kyoga"},"geometry":{"type":"Polygon","coordinates":[[[33.496,1.655],[33.489,1.655],[33.496,1.634],[33.403,1.649],[33.352,1.642],[33.318,1.613],[33.287,1.623],[33.26,1.612],[33.215,1.572],[33.198,1.574],[33.175,1.565],[33.156,1.55],[33.141,1.523],[33.095,1.507],[33.093,1.492],[33.108,1.481],[33.147,1.469],[33.17,1.468],[33.221,1.49],[33.215,1.477],[33.276,1.486],[33.277,1.469],[33.262,1.476],[33.25,1.47],[33.244,1.457],[33.249,1.442],[33.2,1.439],[33.153,1.414],[33.166,1.4],[33.221,1.395],[33.221,1.387],[33.195,1.395],[33.203,1.381],[33.222,1.378],[33.243,1.383],[33.256,1.395],[33.278,1.383],[33.287,1.392],[33.29,1.421],[33.332,1.424],[33.338,1.414],[33.329,1.404],[33.307,1.403],[33.311,1.38],[33.333,1.372],[33.325,1.364],[33.327,1.354],[33.352,1.332],[33.329,1.305],[33.318,1.312],[33.284,1.298],[33.262,1.281],[33.274,1.232],[33.27,1.216],[33.257,1.227],[33.242,1.223],[33.234,1.266],[33.215,1.305],[33.201,1.298],[33.186,1.312],[33.175,1.308],[33.153,1.285],[33.113,1.277],[33.13,1.326],[33.103,1.349],[33.095,1.348],[33.068,1.367],[33.048,1.359],[33.028,1.376],[32.978,1.395],[32.941,1.423],[32.899,1.441],[32.851,1.428],[32.873,1.421],[32.859,1.395],[32.851,1.395],[32.838,1.414],[32.844,1.384],[32.88,1.34],[32.893,1.312],[32.865,1.326],[32.879,1.298],[32.859,1.309],[32.831,1.401],[32.811,1.399],[32.783,1.421],[32.763,1.414],[32.742,1.416],[32.724,1.399],[32.72,1.378],[32.749,1.364],[32.757,1.349],[32.773,1.342],[32.776,1.305],[32.738,1.354],[32.677,1.374],[32.62,1.38],[32.584,1.397],[32.537,1.451],[32.558,1.499],[32.557,1.514],[32.544,1.524],[32.561,1.531],[32.582,1.505],[32.602,1.497],[32.681,1.49],[32.74,1.538],[32.758,1.571],[32.811,1.6],[32.817,1.6],[32.818,1.59],[32.811,1.565],[32.797,1.579],[32.789,1.565],[32.796,1.543],[32.811,1.538],[32.842,1.556],[32.851,1.552],[32.871,1.559],[32.899,1.556],[32.914,1.572],[32.936,1.553],[32.98,1.568],[32.995,1.558],[32.982,1.538],[33.008,1.542],[33.033,1.56],[33.089,1.612],[33.088,1.636],[33.108,1.65],[33.116,1.646],[33.116,1.636],[33.105,1.621],[33.125,1.606],[33.133,1.606],[33.156,1.63],[33.161,1.627],[33.153,1.621],[33.171,1.627],[33.176,1.649],[33.192,1.672],[33.208,1.668],[33.214,1.656],[33.224,1.653],[33.242,1.689],[33.252,1.692],[33.259,1.682],[33.251,1.674],[33.25,1.658],[33.258,1.641],[33.274,1.634],[33.325,1.674],[33.393,1.689],[33.438,1.774],[33.455,1.764],[33.44,1.755],[33.434,1.732],[33.436,1.671],[33.455,1.685],[33.476,1.689],[33.469,1.655],[33.484,1.66],[33.496,1.655]],[[32.865,1.449],[32.751,1.447],[32.727,1.462],[32.715,1.462],[32.733,1.442],[32.751,1.431],[32.804,1.435],[32.824,1.425],[32.865,1.442],[32.865,1.449]]]}},{"type":"Feature","properties":{"name":"Lake Kwania"},"geometry":{"type":"Polygon","coordinates":[[[32.554,1.631],[32.564,1.641],[32.514,1.645],[32.449,1.678],[32.423,1.682],[32.324,1.641],[32.328,1.626],[32.35,1.617],[32.392,1.606],[32.4,1.618],[32.41,1.617],[32.441,1.585],[32.489,1.588],[32.505,1.584],[32.516,1.572],[32.517,1.557],[32.505,1.554],[32.475,1.565],[32.475,1.552],[32.402,1.568],[32.379,1.599],[32.303,1.621],[32.303,1.634],[32.235,1.668],[32.348,1.658],[32.392,1.689],[32.429,1.698],[32.52,1.668],[32.571,1.676],[32.596,1.692],[32.622,1.73],[32.648,1.743],[32.669,1.8],[32.687,1.812],[32.684,1.789],[32.694,1.764],[32.701,1.764],[32.709,1.78],[32.763,1.812],[32.771,1.86],[32.783,1.866],[32.776,1.853],[32.789,1.855],[32.811,1.866],[32.839,1.855],[32.838,1.866],[32.851,1.874],[32.865,1.84],[32.879,1.847],[32.89,1.833],[32.907,1.825],[32.931,1.879],[32.962,1.894],[33.003,1.929],[33.023,1.927],[32.99,1.877],[32.955,1.847],[32.975,1.845],[32.978,1.818],[32.986,1.812],[33.014,1.824],[33.017,1.808],[32.993,1.783],[32.989,1.716],[32.982,1.716],[32.969,1.785],[32.955,1.799],[32.948,1.792],[32.917,1.794],[32.909,1.784],[32.879,1.792],[32.854,1.785],[32.817,1.833],[32.786,1.798],[32.78,1.77],[32.796,1.732],[32.731,1.725],[32.728,1.715],[32.735,1.696],[32.708,1.702],[32.697,1.69],[32.65,1.67],[32.629,1.635],[32.579,1.624],[32.564,1.613],[32.572,1.606],[32.552,1.603],[32.537,1.593],[32.544,1.606],[32.534,1.619],[32.554,1.631]]]}},{"type":"Feature","properties":{"name":"Lake Bunyonyi"},"geometry":{"type":"Polygon","coordinates":[[[29.918,-1.303],[29.919,-1.292],[29.911,-1.292],[29.914,-1.345],[29.905,-1.354],[29.898,-1.284],[29.911,-1.272],[29.892,-1.26],[29.843,-1.21],[29.837,-1.231],[29.831,-1.218],[29.838,-1.2],[29.865,-1.207],[29.891,-1.237],[29.932,-1.258],[29.944,-1.275],[29.967,-1.34],[29.96,-1.346],[29.939,-1.299],[29.918,-1.303]]]}}]}