{"type":"FeatureCollection","features":[{"type":"Feature","properties":{"name":"Ituri"},"geometry":{"type":"MultiLineString","coordinates":[[[30.131,2.025],[30.104,1.983],[30.104,1.956],[30.083,1.932],[30.076,1.91],[30.041,1.855],[30.016,1.826],[30.001,1.799],[29.994,1.754],[30.001,1.73],[29.987,1.72],[29.905,1.606],[29.877,1.553],[29.848,1.479],[29.843,1.436],[29.804,1.462],[29.784,1.469],[29.762,1.462],[29.75,1.449],[29.741,1.408],[29.707,1.387],[29.719,1.359],[29.719,1.344],[29.693,1.298],[29.666,1.292],[29.645,1.261],[29.598,1.256],[29.49,1.233],[29.466,1.209],[29.418,1.192],[29.401,1.148],[29.405,1.133],[29.386,1.125],[29.381,1.106],[29.384,1.062],[29.35,0.996],[29.315,0.983],[29.292,0.963],[29.269,0.965],[29.243,0.982],[29.202,1.045],[29.174,1.059],[29.155,1.089],[29.138,1.093],[29.087,1.069],[29.066,1.065],[29.05,1.082],[29.03,1.089],[29.035,1.113],[29.022,1.126],[28.986,1.144],[28.973,1.161],[28.966,1.196],[28.957,1.203],[28.939,1.188],[28.921,1.198],[28.897,1.196],[28.876,1.187],[28.864,1.175],[28.82,1.187],[28.797,1.185],[28.788,1.171],[28.784,1.124],[28.776,1.105],[28.76,1.086],[28.719,1.051],[28.699,1.051],[28.667,1.006],[28.658,1.002],[28.638,1.01],[28.631,1.024],[28.61,1.024],[28.6,1.031]]]}},{"type":"Feature","properties":{"name":"Semliki"},"geometry":{"type":"MultiLineString","coordinates":[[[29.453,-0.612],[29.459,-0.657],[29.466,-0.676],[29.453,-0.688],[29.431,-0.73],[29.406,-0.821],[29.402,-0.872],[29.383,-0.915],[29.372,-0.96],[29.367,-1.007],[29.353,-1.067],[29.37,-1.12],[29.388,-1.145],[29.413,-1.158],[29.416,-1.164],[29.412,-1.188],[29.417,-1.195],[29.497,-1.231],[29.514,-1.225],[29.546,-1.179],[29.56,-1.17],[29.573,-1.167],[29.603,-1.174],[29.646,-1.175],[29.72,-1.133],[29.763,-1.122],[29.791,-1.129],[29.816,-1.148],[29.833,-1.174],[29.837,-1.196]],[[30.476,1.237],[30.431,1.207],[30.399,1.201],[30.364,1.202],[30.348,1.189],[30.323,1.156],[30.295,1.173],[30.286,1.174],[30.269,1.167],[30.238,1.136],[30.231,1.098],[30.215,1.077],[30.22,1.017],[30.214,0.999],[30.191,0.975],[30.186,0.959],[30.154,0.909],[30.038,0.879],[29.996,0.86],[29.96,0.832],[29.931,0.819],[29.823,0.798],[29.81,0.79],[29.789,0.75],[29.762,0.75],[29.755,0.736],[29.727,0.728],[29.72,0.716],[29.726,0.706],[29.724,0.699],[29.688,0.62],[29.669,0.592],[29.659,0.559],[29.637,0.543],[29.631,0.531],[29.639,0.502],[29.635,0.497],[29.594,0.49],[29.588,0.484],[29.576,0.449],[29.542,0.428],[29.532,0.415],[29.504,0.369],[29.499,0.348],[29.517,0.333],[29.556,0.318],[29.56,0.274],[29.621,0.238],[29.631,0.229],[29.64,0.203],[29.652,0.195],[29.638,0.184],[29.632,0.162],[29.631,0.109],[29.645,0.082],[29.631,0.017],[29.616,-0.012],[29.597,-0.069],[29.57,-0.11],[29.567,-0.127],[29.593,-0.133]]]}},{"type":"Feature","properties":{"name":"Kibali"},"geometry":{"type":"MultiLineString","coordinates":[[[30.371,2.333],[30.384,2.412],[30.405,2.448],[30.399,2.484],[30.428,2.539],[30.44,2.626],[30.435,2.699],[30.43,2.715],[30.417,2.736],[30.414,2.758],[30.388,2.8],[30.385,2.818],[30.392,2.833],[30.379,2.84],[30.364,2.865],[30.327,2.881],[30.296,2.881],[30.237,2.869],[30.227,2.871],[30.216,2.883],[30.191,2.885],[30.145,2.881],[30.131,2.888],[30.111,2.874],[30.1,2.874],[30.06,2.887],[30.052,2.894],[30.044,2.917],[30.007,2.929],[29.898,2.996],[29.864,3.011],[29.797,3.024],[29.758,3.063],[29.734,3.074],[29.589,3.083],[29.565,3.09],[29.56,3.107],[29.535,3.106],[29.516,3.1],[29.514,3.142],[29.494,3.188],[29.501,3.203],[29.494,3.214],[29.504,3.231],[29.494,3.238],[29.512,3.255],[29.507,3.267],[29.494,3.279],[29.487,3.299],[29.466,3.285],[29.453,3.294],[29.395,3.285],[29.352,3.285],[29.315,3.293],[29.3,3.304],[29.271,3.357],[29.229,3.393],[29.22,3.422],[29.172,3.458],[29.16,3.48],[29.142,3.492],[29.13,3.51],[29.143,3.525],[29.145,3.539],[29.135,3.556],[29.098,3.582],[29.09,3.604],[29.081,3.612],[29.012,3.581],[29.003,3.584],[29.001,3.594],[28.989,3.605],[28.983,3.605],[28.977,3.583],[28.942,3.585],[28.89,3.553],[28.867,3.555],[28.841,3.57],[28.83,3.584],[28.798,3.594],[28.791,3.592],[28.788,3.581],[28.773,3.58],[28.701,3.591],[28.662,3.606],[28.645,3.607],[28.6,3.597]]]}},{"type":"Feature","properties":{"name":"Victoria Nile"},"geometry":{"type":"MultiLineString","coordinates":[[[33.187,0.432],[33.181,0.465],[33.158,0.495],[33.099,0.544],[33.085,0.562],[33.051,0.642],[33.046,0.756],[33.034,0.798],[33.014,0.837],[32.966,0.911],[32.954,0.95],[32.936,1.083],[32.939,1.104],[32.961,1.122],[32.965,1.141],[32.961,1.182],[32.931,1.231],[32.922,1.263],[32.899,1.291],[32.894,1.308]],[[32.541,1.521],[32.527,1.516],[32.506,1.521],[32.478,1.549]],[[32.231,1.669],[32.212,1.676],[32.178,1.678],[32.141,1.667],[32.104,1.648],[32.102,1.666],[32.112,1.697],[32.104,1.716],[32.163,1.778],[32.209,1.788],[32.222,1.799],[32.233,1.794],[32.271,1.81],[32.28,1.843],[32.323,1.857],[32.342,1.868],[32.338,1.888],[32.344,1.903],[32.346,1.934],[32.365,1.956],[32.334,1.968],[32.331,1.98],[32.352,2.031],[32.351,2.05],[32.339,2.094],[32.321,2.126],[32.31,2.196],[32.292,2.23],[32.277,2.249],[32.259,2.257],[32.224,2.259],[32.214,2.257],[32.18,2.231],[32.157,2.232],[32.123,2.258],[32.092,2.267],[32.057,2.285],[32.016,2.292],[31.976,2.327],[31.92,2.36],[31.889,2.362],[31.879,2.367],[31.803,2.346],[31.755,2.298],[31.661,2.267],[31.642,2.264],[31.614,2.278],[31.546,2.278],[31.497,2.254],[31.448,2.242],[31.399,2.205],[31.37,2.195]]]}},{"type":"Feature","properties":{"name":"Kagera"},"geometry":{"type":"MultiLineString","coordinates":[[[29.594,-2.984],[29.631,-3.014],[29.666,-3.005],[29.689,-3.014],[29.713,-3.046],[29.731,-3.053],[29.803,-3.04],[29.825,-3.041],[29.904,-3.068],[29.908,-3.087],[29.891,-3.16],[29.898,-3.17],[29.911,-3.177],[29.929,-3.156],[29.961,-3.16],[29.982,-3.2]],[[30.279,-3.2],[30.289,-3.185],[30.33,-3.149],[30.358,-3.136],[30.371,-3.108],[30.376,-3.069],[30.384,-3.058],[30.41,-3.05],[30.415,-3.011],[30.429,-3.004],[30.439,-2.983],[30.456,-2.978],[30.477,-2.95],[30.488,-2.943],[30.483,-2.93],[30.469,-2.914],[30.474,-2.903],[30.456,-2.898],[30.415,-2.851],[30.413,-2.834],[30.446,-2.783],[30.45,-2.742],[30.458,-2.729],[30.516,-2.668],[30.522,-2.649],[30.546,-2.632],[30.562,-2.608],[30.58,-2.597],[30.638,-2.591],[30.65,-2.577],[30.672,-2.58],[30.688,-2.57],[30.706,-2.533],[30.772,-2.492],[30.782,-2.47],[30.767,-2.447],[30.776,-2.43],[30.782,-2.375],[30.834,-2.345],[30.844,-2.326],[30.849,-2.306],[30.844,-2.238],[30.853,-2.194],[30.887,-2.082],[30.879,-2.053],[30.853,-2.024],[30.835,-2.014],[30.816,-2.018],[30.829,-1.96],[30.826,-1.934],[30.796,-1.929],[30.824,-1.902],[30.816,-1.884],[30.837,-1.837],[30.826,-1.786],[30.837,-1.758],[30.824,-1.73],[30.837,-1.641],[30.838,-1.615],[30.83,-1.594],[30.807,-1.603],[30.791,-1.591],[30.772,-1.532],[30.738,-1.489],[30.733,-1.476],[30.741,-1.459],[30.743,-1.433],[30.737,-1.407],[30.717,-1.395],[30.698,-1.392],[30.632,-1.368],[30.597,-1.34],[30.555,-1.318],[30.549,-1.302],[30.556,-1.281],[30.554,-1.273],[30.521,-1.211],[30.511,-1.17],[30.494,-1.155],[30.475,-1.161],[30.467,-1.155],[30.465,-1.149],[30.474,-1.132],[30.47,-1.118],[30.456,-1.108],[30.453,-1.097],[30.456,-1.086],[30.48,-1.059],[30.493,-1.06],[30.511,-1.073],[30.592,-1.063],[30.638,-1.073],[30.687,-1.025],[30.739,-1.005],[30.777,-0.986],[30.851,-1.01],[30.907,-1.022],[30.921,-1.033],[30.947,-1.066],[30.994,-1.109],[31.031,-1.167],[31.047,-1.183],[31.079,-1.189],[31.117,-1.168],[31.149,-1.176],[31.183,-1.179],[31.221,-1.196],[31.282,-1.242],[31.304,-1.251],[31.31,-1.237],[31.327,-1.232],[31.346,-1.237],[31.358,-1.251],[31.37,-1.238],[31.387,-1.231],[31.405,-1.23],[31.42,-1.237],[31.431,-1.234],[31.439,-1.226],[31.441,-1.203],[31.461,-1.231],[31.47,-1.198],[31.477,-1.194],[31.499,-1.211],[31.515,-1.196],[31.536,-1.21],[31.563,-1.2],[31.574,-1.19],[31.577,-1.152],[31.563,-1.147],[31.563,-1.142],[31.583,-1.119],[31.591,-1.08],[31.608,-1.066],[31.611,-1.056],[31.604,-1.029],[31.633,-1.014],[31.689,-0.976],[31.714,-0.977],[31.725,-0.964],[31.742,-0.97],[31.735,-0.949],[31.766,-0.937]]]}},{"type":"Feature","properties":{"name":"Albert Nile"},"geometry":{"type":"MultiLineString","coordinates":[[[31.475,2.412],[31.48,2.445],[31.49,2.463],[31.516,2.472],[31.523,2.48],[31.529,2.501],[31.525,2.509],[31.495,2.504],[31.478,2.519],[31.463,2.562],[31.424,2.617],[31.416,2.638],[31.42,2.662],[31.448,2.682],[31.449,2.694],[31.437,2.753],[31.427,2.764],[31.393,2.786],[31.371,2.821],[31.368,2.863],[31.377,2.904],[31.415,2.994],[31.476,3.063],[31.512,3.119],[31.551,3.202],[31.567,3.271],[31.588,3.3],[31.597,3.335],[31.646,3.388],[31.664,3.454],[31.682,3.468],[31.693,3.486],[31.749,3.498],[31.783,3.525],[31.815,3.535],[31.813,3.522],[31.841,3.522],[31.862,3.506],[31.886,3.498],[31.908,3.499],[31.928,3.51],[31.942,3.528],[31.947,3.549],[31.958,3.563],[32.009,3.578],[32.023,3.587],[32.016,3.614]]]}},{"type":"Feature","properties":{"name":"Bahr el Jebel"},"geometry":{"type":"MultiLineString","coordinates":[[[32.016,3.614],[31.94,3.696],[31.923,3.727],[31.865,3.799],[31.796,3.856],[31.749,3.909],[31.683,3.969],[31.61,4.055],[31.576,4.111],[31.546,4.208],[31.522,4.241],[31.522,4.286],[31.508,4.365],[31.526,4.421],[31.533,4.499],[31.529,4.519],[31.507,4.56],[31.503,4.581],[31.533,4.61],[31.563,4.663],[31.593,4.681],[31.591,4.766],[31.597,4.807],[31.632,4.875],[31.644,4.927],[31.675,5.0]]]}}]}